IRIDIUM 116             
1 43072U 17083C   25081.88244180  .00000963  00000+0  33690-3 0  9997
2 43072  86.4008 150.6778 0001900  99.0641 261.0770 14.34217211379487
IRIDIUM 130             
1 43073U 17083D   25081.92049842  .00000553  00000+0  19022-3 0  9999
2 43073  86.4017 150.8928 0001850  94.5660 265.5747 14.34218076379430
IRIDIUM 151             
1 43074U 17083E   25081.89513822  .00000103  00000+0  29689-4 0  9992
2 43074  86.4015 150.7210 0002216 101.3281 258.8164 14.34213245379458
IRIDIUM 134             
1 43075U 17083F   25081.72386651  .00000783  00000+0  27250-3 0  9998
2 43075  86.4013 150.7936 0002020  90.3475 269.7952 14.34225287379395
IRIDIUM 137             
1 43076U 17083G   25081.94586732  .00001099  00000+0  38545-3 0  9995
2 43076  86.4014 150.7846 0001870 111.7816 248.3579 14.34218068379494
IRIDIUM 141             
1 43077U 17083H   25081.93952724  .00000620  00000+0  21447-3 0  9995
2 43077  86.4009 150.6438 0002413  91.2652 268.8820 14.34218347379495
IRIDIUM 153             
1 43078U 17083J   25081.82193887  .00000433  00000+0  14757-3 0  9999
2 43078  86.3940 119.1909 0002726  87.9479 272.2029 14.34218096380581
IRIDIUM 131             
1 43079U 17083K   25081.92684232  .00000572  00000+0  19703-3 0  9990
2 43079  86.4014 150.8047 0002394  98.4501 261.6966 14.34219288379421
